#aV2023  4 14  0  0  0.00000000     288 DD+AD WGS84 FIT  NGA
## 2257 432000.00000000   300.00000000 60048 0.0000000000000
+   32     1  2  3  4  5  6  7  8  9 10 11 12 13 14 15 16 17
+         18 19 20 21 22 23 24 25 26 27 28 29 30 31 32  0  0
+          0  0  0  0  0  0  0  0  0  0  0  0  0  0  0  0  0
+          0  0  0  0  0  0  0  0  0  0  0  0  0  0  0  0  0
+          0  0  0  0  0  0  0  0  0  0  0  0  0  0  0  0  0
++         2  2  2  2  2  2  2  2  2  2  2  2  2  2  2  2  2
++         2  2  2  2  2  2  2  2  2  2  2  2  2  2  2  0  0
++         0  0  0  0  0  0  0  0  0  0  0  0  0  0  0  0  0
++         0  0  0  0  0  0  0  0  0  0  0  0  0  0  0  0  0
++         0  0  0  0  0  0  0  0  0  0  0  0  0  0  0  0  0
%c cc cc ccc ccc cccc cccc cccc cccc ccccc ccccc ccccc ccccc
%c cc cc ccc ccc cccc cccc cccc cccc ccccc ccccc ccccc ccccc
%f  0.0000000  0.000000000  0.00000000000  0.000000000000000
%f  0.0000000  0.000000000  0.00000000000  0.000000000000000
%i    0    0    0    0      0      0      0      0         0
%i    0    0    0    0      0      0      0      0         0
/*      NGA, ST. LOUIS,MO.                                  
/*   EPHEMERIS COMPUTED FROM 2 DAYS OF DATA                 
/*   EPOCHA v8 SMOOTHER                                     
/*   G2139 IERS2010 SATIGS SATAPC                           
*  2023  4 14 10 25  0.00000000
P  1 -19840.455502 -14315.751222 -11099.034907    193.419378                    
V  1  13148.988907   3038.365186 -27921.081590     -0.032952                    
P  2  25536.494083   6973.158741   1603.625861   -606.139185                    
V  2  -1956.401281   2335.034204  31938.107648      0.036669                    
P  3 -12679.867498 -20033.739582  11967.777102   -329.415316                    
V  3  -1498.854371 -15360.604168 -26899.821248      0.088882                    
P  4 -12636.367746  -8981.628970  21589.159194     16.564849                    
V  4  20588.413487 -18031.623315   4441.531321      0.092285                    
P  5   4765.726064  25859.389252   3082.582839   -123.356108                    
V  5  -3752.767560  -3270.881522  31610.890007     -0.014477                    
P  6 -17164.723575   7503.573485  18931.396143    586.768881                    
V  6 -22347.228315  -8248.005622 -16952.598162      0.012953                    
P  7 -25851.803159  -6742.067178  -1992.660095    201.622054                    
V  7  -2063.059432  -3526.466946  31083.189887     -0.085000                    
P  8  -1834.842798 -17539.444335 -19807.781599   -117.698246                    
V  8  19034.599756 -16463.268108  13246.627155     -0.018177                    
P  9 -19713.758610   1571.094645  17679.569462   -180.273333                    
V  9  15134.598186 -16857.089725  18257.252826      0.079417                    
P 10  12468.893857  -9589.957676 -21169.706399    -32.782739                    
V 10   6690.932358  26486.663733  -8289.607878     -0.015913                    
P 11  -2634.493703  15064.339284  21726.978240   -162.128909                    
V 11 -25907.377815  -9372.073765   3324.049906     -0.126192                    
P 12  10200.012061  22402.095069   9811.199230   -363.775889                    
V 12   -462.302558  13041.691697 -28393.855046     -0.046454                    
P 13  -7095.510152  19121.616653 -17078.266724    505.562036                    
V 13 -18572.208944  10776.994337  20183.250226      0.055964                    
P 14 -14375.398841   6407.627117 -21373.150339     24.777120                    
V 14  -5529.857285 -26653.505873  -4409.314823      0.115453                    
P 15   4723.575579  17434.322250 -19848.036489     30.518190                    
V 15 -16700.731456  17866.770880  12264.445901      0.034152                    
P 16    422.029236 -25686.011015   5405.158485   -508.910835                    
V 16   3942.809239   6887.997295  31147.517367      0.027413                    
P 17 -22395.816213  12879.049098  -5967.171703    710.503398                    
V 17   4872.266645  -6861.719926 -30783.793804      0.017697                    
P 18  25552.400288   4032.498130  -6359.380722   -223.631315                    
V 18   6916.901170   4626.258003  30580.373998     -0.166215                    
P 19 -20087.363328  16912.928517   2514.498405    303.492295                    
V 19  -4389.744944    -68.383106 -32018.182332      0.050953                    
P 20   -452.079663  23383.086249  12811.772775    439.117668                    
V 20  -8344.380377 -14058.931646  25236.747536     -0.021524                    
P 21 -13944.961405 -15076.761762 -16728.166115    154.223032                    
V 21  21782.230051   3418.256895 -19724.224945     -0.001358                    
P 22  17412.607582 -19048.811454   6336.961388    463.898248                    
V 22   7601.418468  -2438.302013 -30528.844786      0.068527                    
P 23  15744.067262   3714.106890 -21088.818475     16.775188                    
V 23   5944.979593  26059.451045   8880.444530      0.025842                    
P 24  17076.598606  14839.700720 -14594.005497   -151.265088                    
V 24 -17910.785824  -1614.335686 -22746.109357     -0.146082                    
P 25  15466.450102  13051.144807  17026.045932    435.502401                    
V 25   3292.357549  21975.273411 -19212.111412      0.028807                    
P 26   7162.352306 -19199.340174  16596.749812    241.742252                    
V 26   8466.358019  19936.379201  19612.835390     -0.002185                    
P 27   9071.186275 -20953.156779 -13452.908835     59.210197                    
V 27  13911.135309  -9735.667298  25409.807417     -0.084608                    
P 28  18630.497096  -7413.344213  17388.292518     64.677372                    
V 28  20875.678329   7541.714019 -19127.169508      0.064341                    
P 29  17400.679179   3310.580955  19764.824995   -595.460179                    
V 29 -19175.317633  16292.865765  14033.699083     -0.016357                    
P 30 -23049.854836   2607.036758 -13064.198288   -522.426405                    
V 30 -15059.865192  -7746.209521  24558.434902      0.018443                    
P 31  12102.908494 -11333.681397  20671.322045   -213.939064                    
V 31  24915.755936   9216.119403  -9021.319149     -0.008638                    
P 32  20930.033323 -15611.337017  -4065.473574   -451.154491                    
V 32  -1908.786920   5891.011276 -31287.986519     -0.100402                    
EOF
